[{"OBJECT_NAME":"STARLINK-30907","OBJECT_ID":"2023-177B","EPOCH":"2026-03-09T22:00:01.999584","MEAN_MOTION":15.27570349,"ECCENTRICITY":0.00017529,"INCLINATION":43.0009,"RA_OF_ASC_NODE":349.075,"ARG_OF_PERICENTER":268.5333,"MEAN_ANOMALY":138.6096,"EPHEMERIS_TYPE":0,"CLASSIFICATION_TYPE":"U","NORAD_CAT_ID":58352,"ELEMENT_SET_NO":999,"REV_AT_EPOCH":573,"BSTAR":-0.00038850833,"MEAN_MOTION_DOT":-0.00010935,"MEAN_MOTION_DDOT":0},{"OBJECT_NAME":"SL-6 R\/B(2)","OBJECT_ID":"1986-075D","EPOCH":"2026-03-09T19:11:59.274240","MEAN_MOTION":6.54432621,"ECCENTRICITY":0.45340684,"INCLINATION":62.2263,"RA_OF_ASC_NODE":225.9777,"ARG_OF_PERICENTER":345.6632,"MEAN_ANOMALY":4.8637,"EPHEMERIS_TYPE":0,"CLASSIFICATION_TYPE":"U","NORAD_CAT_ID":16996,"ELEMENT_SET_NO":999,"REV_AT_EPOCH":60520,"BSTAR":0.0006857799,"MEAN_MOTION_DOT":0.00026455,"MEAN_MOTION_DDOT":0}]
